$$SOE
2460154.500000000, A.D. 2023-Jul-29 00:00:00.0000, 1.184659095431904E+08, 4.080726210629821E+08, -1.237523079916386E+08,
2460161.500000000, A.D. 2023-Aug-05 00:00:00.0000, 1.086279982338622E+08, 4.108336857943154E+08, -1.220594591128487E+08,
2460168.500000000, A.D. 2023-Aug-12 00:00:00.0000, 9.872915847113003E+07, 4.133639740594664E+08, -1.202980222241468E+08,
2460175.500000000, A.D. 2023-Aug-19 00:00:00.0000, 8.877477705444534E+07, 4.156613602163607E+08, -1.184687831488050E+08,
2460182.500000000, A.D. 2023-Aug-26 00:00:00.0000, 7.877030367065488E+07, 4.177238292362655E+08, -1.165725685970711E+08,
2460189.500000000, A.D. 2023-Sep-02 00:00:00.0000, 6.872124897372100E+07, 4.195494791198406E+08, -1.146102462744195E+08,
2460196.500000000, A.D. 2023-Sep-09 00:00:00.0000, 5.863318259194863E+07, 4.211365232058912E+08, -1.125827249818504E+08,
2460203.500000000, A.D. 2023-Sep-16 00:00:00.0000, 4.851173122835812E+07, 4.224832923121469E+08, -1.104909547271581E+08,
2460210.500000000, A.D. 2023-Sep-23 00:00:00.0000, 3.836257726773197E+07, 4.235882369924964E+08, -1.083359268608538E+08,
2460217.500000000, A.D. 2023-Sep-30 00:00:00.0000, 2.819145754860612E+07, 4.244499310996336E+08, -1.061186741077017E+08,
2460224.500000000, A.D. 2023-Oct-07 00:00:00.0000, 1.800415994569296E+07, 4.250670761066720E+08, -1.038402703210058E+08,
2460231.500000000, A.D. 2023-Oct-14 00:00:00.0000, 7.806518799715012E+06, 4.254385028687124E+08, -1.015018303229259E+08,
2460238.500000000, A.D. 2023-Oct-21 00:00:00.0000, -2.395587580636190E+06, 4.255631724253122E+08, -9.910450999514627E+07,
2460245.500000000, A.D. 2023-Oct-28 00:00:00.0000, -1.259623876898962E+07, 4.254401781022515E+08, -9.664950630422297E+07,
2460252.500000000, A.D. 2023-Nov-04 00:00:00.0000, -2.278947467361740E+07, 4.250687481365397E+08, -9.413805720750554E+07,
2460259.500000000, A.D. 2023-Nov-11 00:00:00.0000, -3.296929841549793E+07, 4.244482482179711E+08, -9.157144150187179E+07,
2460266.500000000, A.D. 2023-Nov-18 00:00:00.0000, -4.312967941500727E+07, 4.235781838762289E+08, -8.895097863781832E+07,
2460273.500000000, A.D. 2023-Nov-25 00:00:00.0000, -5.326455661768387E+07, 4.224582027303185E+08, -8.627802850161922E+07,
2460280.500000000, A.D. 2023-Dec-02 00:00:00.0000, -6.336784183411995E+07, 4.210880965849176E+08, -8.355399116795468E+07,
2460287.500000000, A.D. 2023-Dec-09 00:00:00.0000, -7.343342311818844E+07, 4.194678033116548E+08, -8.078030663456105E+07,
2460294.500000000, A.D. 2023-Dec-16 00:00:00.0000, -8.345516789657088E+07, 4.175974085247442E+08, -7.795845456382692E+07,
2460301.500000000, A.D. 2023-Dec-23 00:00:00.0000, -9.342692550080451E+07, 4.154771477346323E+08, -7.508995400635077E+07,
2460308.500000000, A.D. 2023-Dec-30 00:00:00.0000, -1.033425304408638E+08, 4.131074100249140E+08, -7.217636289691128E+07,
2460315.500000000, A.D. 2024-Jan-06 00:00:00.0000, -1.131958081894793E+08, 4.104887408849356E+08, -6.921927735122064E+07,
2460322.500000000, A.D. 2024-Jan-13 00:00:00.0000, -1.229805803034041E+08, 4.076218423801175E+08, -6.622033119875653E+07,
2460329.500000000, A.D. 2024-Jan-20 00:00:00.0000, -1.326906676603849E+08, 4.045075737374206E+08, -6.318119561050360E+07,
2460336.500000000, A.D. 2024-Jan-27 00:00:00.0000, -1.423198938402795E+08, 4.011469529931250E+08, -6.010357858195613E+07,
2460343.500000000, A.D. 2024-Feb-03 00:00:00.0000, -1.518620890774691E+08, 3.975411587471447E+08, -5.698922430861387E+07,
2460350.500000000, A.D. 2024-Feb-10 00:00:00.0000, -1.613110945065483E+08, 3.936915317257585E+08, -5.383991250236778E+07,
2460357.500000000, A.D. 2024-Feb-17 00:00:00.0000, -1.706607665614963E+08, 3.895995761545922E+08, -5.065745766032389E+07,
2460364.500000000, A.D. 2024-Feb-24 00:00:00.0000, -1.799049814903860E+08, 3.852669609508420E+08, -4.744370828762840E+07,
2460371.500000000, A.D. 2024-Mar-02 00:00:00.0000, -1.890376399534300E+08, 3.806955206961612E+08, -4.420054607895184E+07,
2460378.500000000, A.D. 2024-Mar-09 00:00:00.0000, -1.980526715620984E+08, 3.758872563207954E+08, -4.092988507565233E+07,
2460385.500000000, A.D. 2024-Mar-16 00:00:00.0000, -2.069440389602807E+08, 3.708443356891511E+08, -3.763367081783852E+07,
2460392.500000000, A.D. 2024-Mar-23 00:00:00.0000, -2.157057415477194E+08, 3.655690951889583E+08, -3.431387939048935E+07,
2460399.500000000, A.D. 2024-Mar-30 00:00:00.0000, -2.243318210832754E+08, 3.600640422920060E+08, -3.097251616003302E+07,
2460406.500000000, A.D. 2024-Apr-06 00:00:00.0000, -2.328163689050443E+08, 3.543318557124600E+08, -2.761161449939260E+07,
2460413.500000000, A.D. 2024-Apr-13 00:00:00.0000, -2.411535312095545E+08, 3.483753839885127E+08, -2.423323475744994E+07,
2460420.500000000, A.D. 2024-Apr-20 00:00:00.0000, -2.493375133394462E+08, 3.421976451568245E+08, -2.083946316681668E+07,
2460427.500000000, A.D. 2024-Apr-27 00:00:00.0000, -2.573625845915573E+08, 3.358018269542660E+08, -1.743241059710905E+07,
2460434.500000000, A.D. 2024-May-04 00:00:00.0000, -2.652230834501286E+08, 3.291912868375971E+08, -1.401421121918362E+07,
2460441.500000000, A.D. 2024-May-11 00:00:00.0000, -2.729134229995311E+08, 3.223695517126501E+08, -1.058702111043450E+07,
2460448.500000000, A.D. 2024-May-18 00:00:00.0000, -2.804280964273095E+08, 3.153403173885552E+08, -7.153016807059929E+06,
2460455.500000000, A.D. 2024-May-25 00:00:00.0000, -2.877616825852796E+08, 3.081074477443486E+08, -3.714393806484461E+06,
2460462.500000000, A.D. 2024-Jun-01 00:00:00.0000, -2.949088515408640E+08, 3.006749735453552E+08, -2.733650305923373E+05,
2460469.500000000, A.D. 2024-Jun-08 00:00:00.0000, -3.018643698639342E+08, 2.930470908814552E+08, 3.167840725151986E+06,
2460476.500000000, A.D. 2024-Jun-15 00:00:00.0000, -3.086231052410821E+08, 2.852281597675453E+08, 6.606980363846377E+06,
2460483.500000000, A.D. 2024-Jun-22 00:00:00.0000, -3.151800314147411E+08, 2.772227040773904E+08, 1.004179826782292E+07,
2460490.500000000, A.D. 2024-Jun-29 00:00:00.0000, -3.215302355612721E+08, 2.690354109888628E+08, 1.347002833247031E+07,
2460497.500000000, A.D. 2024-Jul-06 00:00:00.0000, -3.276689254509202E+08, 2.606711274685820E+08, 1.688939580761871E+07,
2460504.500000000, A.D. 2024-Jul-13 00:00:00.0000, -3.335914344259706E+08, 2.521348566149130E+08, 2.029761899732685E+07,
2460511.500000000, A.D. 2024-Jul-20 00:00:00.0000, -3.392932261717918E+08, 2.434317550040959E+08, 2.369241109216188E+07,
2460518.500000000, A.D. 2024-Jul-27 00:00:00.0000, -3.447698999246219E+08, 2.345671300782757E+08, 2.707148211333680E+07,
2460525.500000000, A.D. 2024-Aug-03 00:00:00.0000, -3.500171958298147E+08, 2.255464371969025E+08, 3.043254091029309E+07,
2460532.500000000, A.D. 2024-Aug-10 00:00:00.0000, -3.550310002738541E+08, 2.163752763434263E+08, 3.377329719309124E+07,
2460539.500000000, A.D. 2024-Aug-17 00:00:00.0000, -3.598073511341833E+08, 2.070593885082473E+08, 3.709146359393200E+07,
2460546.500000000, A.D. 2024-Aug-24 00:00:00.0000, -3.643424429103097E+08, 1.976046517280396E+08, 4.038475775041492E+07,
2460553.500000000, A.D. 2024-Aug-31 00:00:00.0000, -3.686326316100760E+08, 1.880170767238755E+08, 4.365090439186855E+07,
2460560.500000000, A.D. 2024-Sep-07 00:00:00.0000, -3.726744390131876E+08, 1.783028022683464E+08, 4.688763740228070E+07,
2460567.500000000, A.D. 2024-Sep-14 00:00:00.0000, -3.764645562134760E+08, 1.684680912805477E+08, 5.009270192977842E+07,
2460574.500000000, A.D. 2024-Sep-21 00:00:00.0000, -3.799998484567556E+08, 1.585193280642672E+08, 5.326385675867198E+07,
2460581.500000000, A.D. 2024-Sep-28 00:00:00.0000, -3.832773617515368E+08, 1.484630134667051E+08, 5.639887672141833E+07,
2460588.500000000, A.D. 2024-Oct-05 00:00:00.0000, -3.862943275692415E+08, 1.383057579657038E+08, 5.949555481015109E+07,
2460595.500000000, A.D. 2024-Oct-12 00:00:00.0000, -3.890481659791157E+08, 1.280542756689399E+08, 6.255170425967952E+07,
2460602.500000000, A.D. 2024-Oct-19 00:00:00.0000, -3.915364889583961E+08, 1.177153789581753E+08, 6.556516073596679E+07,
2460609.500000000, A.D. 2024-Oct-26 00:00:00.0000, -3.937571039012049E+08, 1.072959729848200E+08, 6.853378456358604E+07,
2460616.500000000, A.D. 2024-Nov-02 00:00:00.0000, -3.957080170581397E+08, 9.680304987719160E+07, 7.145546295225854E+07,
2460623.500000000, A.D. 2024-Nov-09 00:00:00.0000, -3.973874367988644E+08, 8.624368268886718E+07, 7.432811221088356E+07,
2460630.500000000, A.D. 2024-Nov-16 00:00:00.0000, -3.987937766613132E+08, 7.562501909749465E+07, 7.714967994220226E+07,
2460637.500000000, A.D. 2024-Nov-23 00:00:00.0000, -3.999256581307855E+08, 6.495427481399517E+07, 7.991814720520096E+07,
2460644.500000000, A.D. 2024-Nov-30 00:00:00.0000, -4.007819129313532E+08, 5.423872667007452E+07, 8.263153061813080E+07,
2460651.500000000, A.D. 2024-Dec-07 00:00:00.0000, -4.013615844011554E+08, 4.348570581581574E+07, 8.528788439342955E+07,
2460658.500000000, A.D. 2024-Dec-14 00:00:00.0000, -4.016639286316645E+08, 3.270259226259792E+07, 8.788530246300268E+07,
2460665.500000000, A.D. 2024-Dec-21 00:00:00.0000, -4.016884176830813E+08, 2.189680954182740E+07, 9.042192080077641E+07,
2460672.500000000, A.D. 2024-Dec-28 00:00:00.0000, -4.014347428994291E+08, 1.107581652530297E+07, 9.289591951561940E+07,
2460679.500000000, A.D. 2025-Jan-04 00:00:00.0000, -4.009028157196455E+08, 2.470987986711413E+05, 9.530552466655391E+07,
2460686.500000000, A.D. 2025-Jan-11 00:00:00.0000, -4.000927677974985E+08, -1.058183873878350E+07, 9.764901009773484E+07,
2460693.500000000, A.D. 2025-Jan-18 00:00:00.0000, -3.990049513426746E+08, -2.140347895489283E+07, 9.992469929775745E+07,
2460700.500000000, A.D. 2025-Jan-25 00:00:00.0000, -3.976399394379011E+08, -3.221029970681243E+07, 1.021309672188416E+08,
2460707.500000000, A.D. 2025-Feb-01 00:00:00.0000, -3.959985261408254E+08, -4.299478121978845E+07, 1.042662420327745E+08,
2460714.500000000, A.D. 2025-Feb-08 00:00:00.0000, -3.940817263103777E+08, -5.374941358781404E+07, 1.063290068163923E+08,
2460721.500000000, A.D. 2025-Feb-15 00:00:00.0000, -3.918907751277733E+08, -6.446670440145826E+07, 1.083178011589436E+08,
$$EOE